NORAD_CAT_ID,OBJECT_NAME,OBJECT_TYPE,EPOCH,MEAN_MOTION,ECCENTRICITY,INCLINATION,RA_OF_ASC_NODE,ARG_OF_PERICENTER,MEAN_ANOMALY,BSTAR,MEAN_MOTION_DOT,MEAN_MOTION_DDOT,TLE_LINE0,TLE_LINE1,TLE_LINE2,SEMIMAJOR_AXIS,PERIOD,APOGEE,PERIGEE,DECAYED
56482.0,STARLINK-6220,PAYLOAD,2023-10-16 14:59:07,14.98325037,0.0003061,69.9989,170.7786,268.4403,91.6406,0.00015059,1.704e-05,0.0,0 STARLINK-6220,1 56482U 23064AL  23289.62438705  .00001704  00000-0  15059-3 0  9994,2 56482  69.9989 170.7786 0003061 268.4403  91.6406 14.98325037 24666,6950.208,96.107,574.201,569.946,0.0
56482.0,STARLINK-6220,PAYLOAD,2023-10-16 16:35:15,14.98327705,0.0003064,69.9989,170.6103,268.5753,91.5055,0.00013346,1.5e-05,0.0,0 STARLINK-6220,1 56482U 23064AL  23289.69114607  .00001500  00000-0  13346-3 0  9994,2 56482  69.9989 170.6103 0003064 268.5753  91.5055 14.98327705 25035,6950.2,96.107,574.195,569.935,0.0
56482.0,STARLINK-6220,PAYLOAD,2023-10-18 02:14:04,14.98336245,0.0002995,69.999,167.0754,269.1028,90.9788,5.1121e-06,-3.2e-07,0.0,0 STARLINK-6220,1 56482U 23064AL  23291.09310311 -.00000032  00000-0  51121-5 0  9996,2 56482  69.9990 167.0754 0002995 269.1028  90.9788 14.98336245 24880,6950.174,96.107,574.12,569.957,0.0
56482.0,STARLINK-6220,PAYLOAD,2023-10-18 08:38:36,14.98348703,0.0002952,69.9997,166.4022,271.7633,88.3188,-0.00031447,-3.845e-05,0.0,0 STARLINK-6220,1 56482U 23064AL  23291.36014165 -.00003845  00000-0 -31447-3 0  9997,2 56482  69.9997 166.4022 0002952 271.7633  88.3188 14.98348703 25284,6950.135,96.106,574.052,569.948,0.0
56482.0,STARLINK-6220,PAYLOAD,2023-10-18 15:03:08,14.98332553,0.0002765,70.0,165.7291,272.0801,88.0041,-5.3611e-05,-7.33e-06,0.0,0 STARLINK-6220,1 56482U 23064AL  23291.62718644 -.00000733  00000-0 -53611-4 0  9990,2 56482  70.0000 165.7291 0002765 272.0801  88.0041 14.98332553 25321,6950.185,96.107,573.972,570.128,0.0
56482.0,STARLINK-6220,PAYLOAD,2023-10-19 02:16:04,14.9833629,0.0002668,69.9998,164.5513,270.6226,89.4628,1.4351e-05,7.8e-07,0.0,0 STARLINK-6220,1 56482U 23064AL  23292.09450064  .00000078  00000-0  14351-4 0  9999,2 56482  69.9998 164.5513 0002668 270.6226  89.4628 14.98336290 25390,6950.173,96.107,573.893,570.184,0.0
56482.0,STARLINK-6220,PAYLOAD,2023-10-19 21:29:41,14.9833297,0.0002656,69.9999,162.5316,269.9207,90.1647,4.4603e-05,4.39e-06,0.0,0 STARLINK-6220,1 56482U 23064AL  23292.89561890  .00000439  00000-0  44603-4 0  9991,2 56482  69.9999 162.5316 0002656 269.9207  90.1647 14.98332970 25152,6950.184,96.107,573.895,570.203,0.0
56482.0,STARLINK-6220,PAYLOAD,2023-10-20 00:41:57,14.98333022,0.0002659,69.9997,162.195,269.4568,90.6286,4.104e-05,3.97e-06,0.0,0 STARLINK-6220,1 56482U 23064AL  23293.02913864  .00000397  00000-0  41040-4 0  9994,2 56482  69.9997 162.1950 0002659 269.4568  90.6286 14.98333022 25173,6950.184,96.107,573.897,570.2,0.0
56482.0,STARLINK-6220,PAYLOAD,2023-10-20 18:19:27,14.98321769,0.0003013,69.9973,160.341,263.3904,96.6912,-0.00012646,-1.601e-05,0.0,0 STARLINK-6220,1 56482U 23064AL  23293.76351097 -.00001601  00000-0 -12646-3 0  9999,2 56482  69.9973 160.3410 0003013 263.3904  96.6912 14.98321769 25649,6950.218,96.108,574.177,569.989,0.0
56482.0,STARLINK-6220,PAYLOAD,2023-10-20 21:31:43,14.98321502,0.0003039,69.9973,160.0044,263.7542,96.327,-0.00013424,-1.694e-05,0.0,0 STARLINK-6220,1 56482U 23064AL  23293.89703194 -.00001694  00000-0 -13424-3 0  9999,2 56482  69.9973 160.0044 0003039 263.7542  96.3270 14.98321502 25301,6950.219,96.108,574.196,569.972,0.0
56482.0,STARLINK-6220,PAYLOAD,2023-10-21 10:20:47,14.98325986,0.0002924,69.9991,158.6602,270.1858,89.8966,-6.1343e-05,-8.25e-06,0.0,0 STARLINK-6220,1 56482U 23064AL  23294.43110968 -.00000825  00000-0 -61343-4 0  9990,2 56482  69.9991 158.6602 0002924 270.1858  89.8966 14.98325986 25745,6950.205,96.107,574.103,570.038,0.0
56482.0,STARLINK-6220,PAYLOAD,2023-10-21 21:33:43,14.98335756,0.000298,69.9978,157.4809,268.5483,91.5335,-9.9912e-06,-2.12e-06,0.0,0 STARLINK-6220,1 56482U 23064AL  23294.89842206 -.00000212  00000-0 -99912-5 0  9991,2 56482  69.9978 157.4809 0002980 268.5483  91.5335 14.98335756 25457,6950.175,96.107,574.111,569.969,0.0
56482.0,STARLINK-6220,PAYLOAD,2023-10-22 00:45:59,14.98336443,0.0002816,69.9982,157.1438,267.9247,92.159,6.5531e-06,-1.5e-07,0.0,0 STARLINK-6220,1 56482U 23064AL  23295.03194073 -.00000015  00000-0  65531-5 0  9990,2 56482  69.9982 157.1438 0002816 267.9247  92.1590 14.98336443 25832,6950.173,96.107,573.995,570.081,0.0
56482.0,STARLINK-6220,PAYLOAD,2023-10-22 13:35:04,14.98321168,0.000279,69.999,155.7966,271.4931,88.5909,0.00015647,1.774e-05,0.0,0 STARLINK-6220,1 56482U 23064AL  23295.56602685  .00001774  00000-0  15647-3 0  9994,2 56482  69.9990 155.7966 0002790 271.4931  88.5909 14.98321168 25552,6950.22,96.108,574.024,570.146,0.0
56482.0,STARLINK-6220,PAYLOAD,2023-10-22 21:35:45,14.9832372,0.0002884,69.9986,154.9554,272.1451,87.9378,0.00016492,1.875e-05,0.0,0 STARLINK-6220,1 56482U 23064AL  23295.89982716  .00001875  00000-0  16492-3 0  9997,2 56482  69.9986 154.9554 0002884 272.1451  87.9378 14.98323720 25964,6950.212,96.107,574.082,570.073,0.0
56482.0,STARLINK-6220,PAYLOAD,2023-10-23 00:48:01,14.98319536,0.0002929,69.9982,154.6193,272.5279,87.5545,0.00011894,1.326e-05,0.0,0 STARLINK-6220,1 56482U 23064AL  23296.03335147  .00001326  00000-0  11894-3 0  9996,2 56482  69.9982 154.6193 0002929 272.5279  87.5545 14.98319536 25982,6950.225,96.108,574.126,570.055,0.0
56482.0,STARLINK-6220,PAYLOAD,2023-10-23 21:37:45,14.98334064,0.0003028,69.9982,152.4313,270.1091,89.9721,5.2134e-05,5.29e-06,0.0,0 STARLINK-6220,1 56482U 23064AL  23296.90122309  .00000529  00000-0  52134-4 0  9993,2 56482  69.9982 152.4313 0003028 270.1091  89.9721 14.98334064 25759,6950.18,96.107,574.15,569.941,0.0
56482.0,STARLINK-6220,PAYLOAD,2023-10-24 00:50:01,14.9834774,0.0002778,69.9984,152.0949,266.798,93.2862,-0.00016285,-2.036e-05,0.0,0 STARLINK-6220,1 56482U 23064AL  23297.03474024 -.00002036  00000-0 -16285-3 0  9995,2 56482  69.9984 152.0949 0002778 266.7980  93.2862 14.98347740 26133,6950.138,96.106,573.934,570.072,0.0
56482.0,STARLINK-6220,PAYLOAD,2023-10-24 07:14:33,14.98343431,0.0002791,69.9984,151.4211,269.0138,91.0702,-0.00014241,-1.792e-05,0.0,0 STARLINK-6220,1 56482U 23064AL  23297.30178008 -.00001792  00000-0 -14241-3 0  9996,2 56482  69.9984 151.4211 0002791 269.0138  91.0702 14.98343431 25810,6950.151,96.106,573.956,570.077,0.0
56482.0,STARLINK-6220,PAYLOAD,2023-10-25 13:41:07,14.98379721,0.0002106,70.0003,148.2223,268.4044,91.6874,-0.00066567,-8.036e-05,0.0,0 STARLINK-6220,1 56482U 23064AL  23298.57022275 -.00008036  00000-0 -66567-3 0  9996,2 56482  70.0003 148.2223 0002106 268.4044  91.6874 14.98379721 26369,6950.039,96.104,573.368,570.44,0.0
56482.0,STARLINK-6220,PAYLOAD,2023-10-25 21:41:46,14.98363338,0.0002925,69.9987,147.3791,271.6541,88.4283,-0.0003598,-4.387e-05,0.0,0 STARLINK-6220,1 56482U 23064AL  23298.90401359 -.00004387  00000-0 -35980-3 0  9997,2 56482  69.9987 147.3791 0002925 271.6541  88.4283 14.98363338 26055,6950.09,96.105,573.988,569.922,0.0
56482.0,STARLINK-6220,PAYLOAD,2023-10-25 23:17:55,14.98352982,0.0002864,69.9985,147.2108,271.9024,88.1807,-0.00037554,-4.574e-05,0.0,0 STARLINK-6220,1 56482U 23064AL  23298.97077908 -.00004574  00000-0 -37554-3 0  9990,2 56482  69.9985 147.2108 0002864 271.9024  88.1807 14.98352982 26428,6950.122,96.106,573.977,569.996,0.0
56482.0,STARLINK-6220,PAYLOAD,2023-10-26 18:31:32,14.9833475,0.0002482,69.9979,145.1913,273.3519,86.7356,-4.6359e-05,-6.46e-06,0.0,0 STARLINK-6220,1 56482U 23064AL  23299.77189930 -.00000646  00000-0 -46359-4 0  9998,2 56482  69.9979 145.1913 0002482 273.3519  86.7356 14.98334750 26542,6950.178,96.107,573.768,570.318,0.0
56482.0,STARLINK-6220,PAYLOAD,2023-10-26 21:43:48,14.98323757,0.0002818,69.9975,144.8546,264.1879,95.8958,0.00015845,1.798e-05,0.0,0 STARLINK-6220,1 56482U 23064AL  23299.90541794  .00001798  00000-0  15845-3 0  9995,2 56482  69.9975 144.8546 0002818 264.1879  95.8958 14.98323757 26203,6950.212,96.107,574.036,570.119,0.0
56482.0,STARLINK-6220,PAYLOAD,2023-10-26 23:19:55,14.98339709,0.0003329,69.9982,144.6863,251.212,108.8679,0.00010066,1.108e-05,0.0,0 STARLINK-6220,1 56482U 23064AL  23299.97216821  .00001108  00000-0  10066-3 0  9997,2 56482  69.9982 144.6863 0003329 251.2120 108.8679 14.98339709 26574,6950.163,96.106,574.342,569.714,0.0
56482.0,STARLINK-6220,PAYLOAD,2023-10-27 07:20:37,14.98304843,0.0002608,69.9977,143.845,278.5684,81.518,0.00039551,4.626e-05,0.0,0 STARLINK-6220,1 56482U 23064AL  23300.30598777  .00004626  00000-0  39551-3 0  9998,2 56482  69.9977 143.8450 0002608 278.5684  81.5180 14.98304843 26628,6950.271,96.109,573.948,570.323,0.0
56482.0,STARLINK-6220,PAYLOAD,2023-10-27 13:45:08,14.98328671,0.0002996,69.9973,143.1715,266.5334,93.5482,-4.642e-07,-9.9e-07,0.0,0 STARLINK-6220,1 56482U 23064AL  23300.57301917 -.00000099  00000-0 -46420-6 0  9993,2 56482  69.9973 143.1715 0002996 266.5334  93.5482 14.98328671 26308,6950.197,96.107,574.144,569.98,0.0
56482.0,STARLINK-6220,PAYLOAD,2023-10-27 20:09:40,14.98331577,0.000291,69.9976,142.4987,269.2499,90.8326,-7.7075e-06,-1.85e-06,0.0,0 STARLINK-6220,1 56482U 23064AL  23300.84005741 -.00000185  00000-0 -77075-5 0  9994,2 56482  69.9976 142.4987 0002910 269.2499  90.8326 14.98331577 26702,6950.188,96.107,574.076,570.031,0.0
56482.0,STARLINK-6220,PAYLOAD,2023-10-27 21:45:49,14.98330809,0.0002974,69.9975,142.3305,269.3504,90.7314,-8.5267e-06,-1.95e-06,0.0,0 STARLINK-6220,1 56482U 23064AL  23300.90681819 -.00000195  00000-0 -85267-5 0  9990,2 56482  69.9975 142.3305 0002974 269.3504  90.7314 14.98330809 26356,6950.19,96.107,574.122,569.988,0.0
56482.0,STARLINK-6220,PAYLOAD,2023-10-28 13:47:09,14.98329973,0.0003034,69.9972,140.6473,269.3049,90.7762,-5.8346e-05,-7.89e-06,0.0,0 STARLINK-6220,1 56482U 23064AL  23301.57442062 -.00000789  00000-0 -58346-4 0  9995,2 56482  69.9972 140.6473 0003034 269.3049  90.7762 14.98329973 26450,6950.193,96.107,574.167,569.949,0.0
